AQUA                    
1 27424U 02022A   26085.25652857  .00000997  00000+0  20854-3 0  9992
2 27424  98.4202  52.9267 0001030 117.4446 353.5203 14.62013521271150
CZ-4B R/B               
1 27432U 02024C   26085.12230954  .00000037  00000+0  41980-4 0  9998
2 27432  98.8804 138.4437 0049636 337.4968  48.9502 14.14550466231566
MIDORI II (ADEOS-II)    
1 27597U 02056A   26085.11474167  .00000298  00000+0  13492-3 0  9995
2 27597  98.7797  43.7088 0000886  25.1601 334.9623 14.29296885212645
H-2A R/B                
1 27601U 02056E   26085.33618994  .00000287  00000+0  11479-3 0  9994
2 27601  98.3231  45.0709 0071303 111.5932  50.8119 14.33771303216493
CZ-4B R/B               
1 28059U 03049C   26084.95651353  .00000347  00000+0  91047-4 0  9995
2 28059  98.6892  80.5014 0048105 180.7013 179.4123 14.55034235188965
CZ-2C R/B               
1 28222U 04012C   26085.10045788  .00057643  00000+0  54995-3 0  9996
2 28222  97.7192 151.9693 0013202 243.0896 116.9015 15.66488362206849
SL-16 R/B               
1 28353U 04021B   26085.28663175  .00000099  00000+0  76228-4 0  9993
2 28353  71.0005 197.6626 0004834 349.6302  10.4720 14.14593894125188
CZ-4B R/B               
1 28415U 04035C   26085.33349584  .00007457  00000+0  26120-3 0  9998
2 28415  97.3477 119.3777 0029973 269.3207  90.4599 15.29345901182458
CZ-2C R/B               
1 28480U 04046B   26085.24387313  .00000131  00000+0  63370-4 0  9995
2 28480  98.1976 359.1966 0140582 105.7849 255.8885 14.26997736110868
ARIANE 5 R/B            
1 28499U 04049H   26085.07036667  .00000753  00000+0  89704-4 0  9991
2 28499  98.2652 254.1435 0082977 298.4005  60.8863 14.85294047148223
CZ-2D R/B               
1 28738U 05024B   26085.31337873  .00042249  00000+0  49083-3 0  9992
2 28738  97.3587 101.0873 0002849 352.1151   8.0061 15.61638727142378
ALOS (DAICHI)           
1 28931U 06002A   26085.11339541  .00001318  00000+0  22881-3 0  9995
2 28931  98.1244  40.9897 0000788 101.8510 258.2785 14.69858128 75897
