CCSDS_OMM_VERS = 2.0
CREATION_DATE  = 
ORIGINATOR     = 

OBJECT_NAME    = AQUA
OBJECT_ID      = 2002-022A
CENTER_NAME    = EARTH
REF_FRAME      = TEME
TIME_SYSTEM    = UTC
MEAN_ELEMENT_THEORY = SGP/SGP4

EPOCH          = 2026-03-26T06:09:24.068448
MEAN_MOTION    = 14.62013521
ECCENTRICITY   = .000103
INCLINATION    = 98.4202
RA_OF_ASC_NODE = 52.9267
ARG_OF_PERICENTER = 117.4446
MEAN_ANOMALY   = 353.5203

EPHEMERIS_TYPE = 0
CLASSIFICATION_TYPE = U
NORAD_CAT_ID   = 27424
ELEMENT_SET_NO = 999
REV_AT_EPOCH   = 27115
BSTAR          = .20854079E-3
MEAN_MOTION_DOT = .997E-5
MEAN_MOTION_DDOT = 0

CCSDS_OMM_VERS = 2.0
CREATION_DATE  = 
ORIGINATOR     = 

OBJECT_NAME    = CZ-4B R/B
OBJECT_ID      = 2002-024C
CENTER_NAME    = EARTH
REF_FRAME      = TEME
TIME_SYSTEM    = UTC
MEAN_ELEMENT_THEORY = SGP/SGP4

EPOCH          = 2026-03-26T02:56:07.544256
MEAN_MOTION    = 14.14550466
ECCENTRICITY   = .00496363
INCLINATION    = 98.8804
RA_OF_ASC_NODE = 138.4437
ARG_OF_PERICENTER = 337.4968
MEAN_ANOMALY   = 48.9502

EPHEMERIS_TYPE = 0
CLASSIFICATION_TYPE = U
NORAD_CAT_ID   = 27432
ELEMENT_SET_NO = 999
REV_AT_EPOCH   = 23156
BSTAR          = .41980388E-4
MEAN_MOTION_DOT = .37E-6
MEAN_MOTION_DDOT = 0

CCSDS_OMM_VERS = 2.0
CREATION_DATE  = 
ORIGINATOR     = 

OBJECT_NAME    = MIDORI II (ADEOS-II)
OBJECT_ID      = 2002-056A
CENTER_NAME    = EARTH
REF_FRAME      = TEME
TIME_SYSTEM    = UTC
MEAN_ELEMENT_THEORY = SGP/SGP4

EPOCH          = 2026-03-26T02:45:13.680288
MEAN_MOTION    = 14.29296885
ECCENTRICITY   = .00008868
INCLINATION    = 98.7797
RA_OF_ASC_NODE = 43.7088
ARG_OF_PERICENTER = 25.1601
MEAN_ANOMALY   = 334.9623

EPHEMERIS_TYPE = 0
CLASSIFICATION_TYPE = U
NORAD_CAT_ID   = 27597
ELEMENT_SET_NO = 999
REV_AT_EPOCH   = 21264
BSTAR          = .13491743E-3
MEAN_MOTION_DOT = .298E-5
MEAN_MOTION_DDOT = 0

CCSDS_OMM_VERS = 2.0
CREATION_DATE  = 
ORIGINATOR     = 

OBJECT_NAME    = H-2A R/B
OBJECT_ID      = 2002-056E
CENTER_NAME    = EARTH
REF_FRAME      = TEME
TIME_SYSTEM    = UTC
MEAN_ELEMENT_THEORY = SGP/SGP4

EPOCH          = 2026-03-26T08:04:06.810816
MEAN_MOTION    = 14.33771303
ECCENTRICITY   = .00713035
INCLINATION    = 98.3231
RA_OF_ASC_NODE = 45.0709
ARG_OF_PERICENTER = 111.5932
MEAN_ANOMALY   = 50.8119

EPHEMERIS_TYPE = 0
CLASSIFICATION_TYPE = U
NORAD_CAT_ID   = 27601
ELEMENT_SET_NO = 999
REV_AT_EPOCH   = 21649
BSTAR          = .11479332E-3
MEAN_MOTION_DOT = .287E-5
MEAN_MOTION_DDOT = 0

CCSDS_OMM_VERS = 2.0
CREATION_DATE  = 
ORIGINATOR     = 

OBJECT_NAME    = CZ-4B R/B
OBJECT_ID      = 2003-049C
CENTER_NAME    = EARTH
REF_FRAME      = TEME
TIME_SYSTEM    = UTC
MEAN_ELEMENT_THEORY = SGP/SGP4

EPOCH          = 2026-03-25T22:57:22.768992
MEAN_MOTION    = 14.55034235
ECCENTRICITY   = .00481051
INCLINATION    = 98.6892
RA_OF_ASC_NODE = 80.5014
ARG_OF_PERICENTER = 180.7013
MEAN_ANOMALY   = 179.4123

EPHEMERIS_TYPE = 0
CLASSIFICATION_TYPE = U
NORAD_CAT_ID   = 28059
ELEMENT_SET_NO = 999
REV_AT_EPOCH   = 18896
BSTAR          = .91046731E-4
MEAN_MOTION_DOT = .347E-5
MEAN_MOTION_DDOT = 0

CCSDS_OMM_VERS = 2.0
CREATION_DATE  = 
ORIGINATOR     = 

OBJECT_NAME    = CZ-2C R/B
OBJECT_ID      = 2004-012C
CENTER_NAME    = EARTH
REF_FRAME      = TEME
TIME_SYSTEM    = UTC
MEAN_ELEMENT_THEORY = SGP/SGP4

EPOCH          = 2026-03-26T02:24:39.560832
MEAN_MOTION    = 15.66488362
ECCENTRICITY   = .00132029
INCLINATION    = 97.7192
RA_OF_ASC_NODE = 151.9693
ARG_OF_PERICENTER = 243.0896
MEAN_ANOMALY   = 116.9015

EPHEMERIS_TYPE = 0
CLASSIFICATION_TYPE = U
NORAD_CAT_ID   = 28222
ELEMENT_SET_NO = 999
REV_AT_EPOCH   = 20684
BSTAR          = .54994722E-3
MEAN_MOTION_DOT = .57643E-3
MEAN_MOTION_DDOT = 0

CCSDS_OMM_VERS = 2.0
CREATION_DATE  = 
ORIGINATOR     = 

OBJECT_NAME    = SL-16 R/B
OBJECT_ID      = 2004-021B
CENTER_NAME    = EARTH
REF_FRAME      = TEME
TIME_SYSTEM    = UTC
MEAN_ELEMENT_THEORY = SGP/SGP4

EPOCH          = 2026-03-26T06:52:44.983200
MEAN_MOTION    = 14.14593894
ECCENTRICITY   = .00048344
INCLINATION    = 71.0005
RA_OF_ASC_NODE = 197.6626
ARG_OF_PERICENTER = 349.6302
MEAN_ANOMALY   = 10.4720

EPHEMERIS_TYPE = 0
CLASSIFICATION_TYPE = U
NORAD_CAT_ID   = 28353
ELEMENT_SET_NO = 999
REV_AT_EPOCH   = 12518
BSTAR          = .76228054E-4
MEAN_MOTION_DOT = .99E-6
MEAN_MOTION_DDOT = 0

CCSDS_OMM_VERS = 2.0
CREATION_DATE  = 
ORIGINATOR     = 

OBJECT_NAME    = CZ-4B R/B
OBJECT_ID      = 2004-035C
CENTER_NAME    = EARTH
REF_FRAME      = TEME
TIME_SYSTEM    = UTC
MEAN_ELEMENT_THEORY = SGP/SGP4

EPOCH          = 2026-03-26T08:00:14.040576
MEAN_MOTION    = 15.29345901
ECCENTRICITY   = .00299731
INCLINATION    = 97.3477
RA_OF_ASC_NODE = 119.3777
ARG_OF_PERICENTER = 269.3207
MEAN_ANOMALY   = 90.4599

EPHEMERIS_TYPE = 0
CLASSIFICATION_TYPE = U
NORAD_CAT_ID   = 28415
ELEMENT_SET_NO = 999
REV_AT_EPOCH   = 18245
BSTAR          = .26119531E-3
MEAN_MOTION_DOT = .7457E-4
MEAN_MOTION_DDOT = 0

CCSDS_OMM_VERS = 2.0
CREATION_DATE  = 
ORIGINATOR     = 

OBJECT_NAME    = CZ-2C R/B
OBJECT_ID      = 2004-046B
CENTER_NAME    = EARTH
REF_FRAME      = TEME
TIME_SYSTEM    = UTC
MEAN_ELEMENT_THEORY = SGP/SGP4

EPOCH          = 2026-03-26T05:51:10.638432
MEAN_MOTION    = 14.26997736
ECCENTRICITY   = .01405827
INCLINATION    = 98.1976
RA_OF_ASC_NODE = 359.1966
ARG_OF_PERICENTER = 105.7849
MEAN_ANOMALY   = 255.8885

EPHEMERIS_TYPE = 0
CLASSIFICATION_TYPE = U
NORAD_CAT_ID   = 28480
ELEMENT_SET_NO = 999
REV_AT_EPOCH   = 11086
BSTAR          = .63369633E-4
MEAN_MOTION_DOT = .131E-5
MEAN_MOTION_DDOT = 0

CCSDS_OMM_VERS = 2.0
CREATION_DATE  = 
ORIGINATOR     = 

OBJECT_NAME    = ARIANE 5 R/B
OBJECT_ID      = 2004-049H
CENTER_NAME    = EARTH
REF_FRAME      = TEME
TIME_SYSTEM    = UTC
MEAN_ELEMENT_THEORY = SGP/SGP4

EPOCH          = 2026-03-26T01:41:19.680288
MEAN_MOTION    = 14.85294047
ECCENTRICITY   = .00829776
INCLINATION    = 98.2652
RA_OF_ASC_NODE = 254.1435
ARG_OF_PERICENTER = 298.4005
MEAN_ANOMALY   = 60.8863

EPHEMERIS_TYPE = 0
CLASSIFICATION_TYPE = U
NORAD_CAT_ID   = 28499
ELEMENT_SET_NO = 999
REV_AT_EPOCH   = 14822
BSTAR          = .89703733E-4
MEAN_MOTION_DOT = .753E-5
MEAN_MOTION_DDOT = 0

CCSDS_OMM_VERS = 2.0
CREATION_DATE  = 
ORIGINATOR     = 

OBJECT_NAME    = CZ-2D R/B
OBJECT_ID      = 2005-024B
CENTER_NAME    = EARTH
REF_FRAME      = TEME
TIME_SYSTEM    = UTC
MEAN_ELEMENT_THEORY = SGP/SGP4

EPOCH          = 2026-03-26T07:31:15.922272
MEAN_MOTION    = 15.61638727
ECCENTRICITY   = .00028492
INCLINATION    = 97.3587
RA_OF_ASC_NODE = 101.0873
ARG_OF_PERICENTER = 352.1151
MEAN_ANOMALY   = 8.0061

EPHEMERIS_TYPE = 0
CLASSIFICATION_TYPE = U
NORAD_CAT_ID   = 28738
ELEMENT_SET_NO = 999
REV_AT_EPOCH   = 14237
BSTAR          = .49082661E-3
MEAN_MOTION_DOT = .42249E-3
MEAN_MOTION_DDOT = 0

CCSDS_OMM_VERS = 2.0
CREATION_DATE  = 
ORIGINATOR     = 

OBJECT_NAME    = ALOS (DAICHI)
OBJECT_ID      = 2006-002A
CENTER_NAME    = EARTH
REF_FRAME      = TEME
TIME_SYSTEM    = UTC
MEAN_ELEMENT_THEORY = SGP/SGP4

EPOCH          = 2026-03-26T02:43:17.363424
MEAN_MOTION    = 14.69858128
ECCENTRICITY   = .00007886
INCLINATION    = 98.1244
RA_OF_ASC_NODE = 40.9897
ARG_OF_PERICENTER = 101.8510
MEAN_ANOMALY   = 258.2785

EPHEMERIS_TYPE = 0
CLASSIFICATION_TYPE = U
NORAD_CAT_ID   = 28931
ELEMENT_SET_NO = 999
REV_AT_EPOCH   = 7589
BSTAR          = .22881388E-3
MEAN_MOTION_DOT = .1318E-4
MEAN_MOTION_DDOT = 0

